start=new Date('2023-04-01T00:00:00.000Z').valueOf();
sats=[{"MEAN_MOTION":"15.06423880","GP_ID":"229203734","ECCENTRICITY":"0.00016380","MEAN_ELEMENT_THEORY":"SGP4","ELEMENT_SET_NO":"999","EPOCH":"2023-03-31T16:47:29.092128","TIME_SYSTEM":"UTC","ARG_OF_PERICENTER":"96.6279","TLE_LINE2":"2 46154  53.0535  87.9449 0001638  96.6279 263.4896 15.06423880144982","RCS_SIZE":"LARGE","CLASSIFICATION_TYPE":"U","PERIOD":"95.591","REF_FRAME":"TEME","TLE_LINE1":"1 46154U 20057AP  23090.69964227  .00013368  00000-0  91402-3 0  9993","RA_OF_ASC_NODE":"87.9449","SITE":"AFETR","MEAN_MOTION_DDOT":"0.0000000000000","BSTAR":"0.00091402000000","FILE":"3876432","SEMIMAJOR_AXIS":"6925.275","CENTER_NAME":"EARTH","MEAN_MOTION_DOT":"0.00013368","OBJECT_TYPE":"PAYLOAD","REV_AT_EPOCH":"14498","PERIAPSIS":"546.006","LAUNCH_DATE":"2020-08-18","COUNTRY_CODE":"US","DECAY_DATE":null,"OBJECT_ID":"2020-057AP","OBJECT_NAME":"STARLINK-1642","MEAN_ANOMALY":"263.4896","INCLINATION":"53.0535","EPHEMERIS_TYPE":"0","NORAD_CAT_ID":"46154","APOAPSIS":"548.275"},{"PERIOD":"95.592","CLASSIFICATION_TYPE":"U","RCS_SIZE":"LARGE","SITE":"AFETR","RA_OF_ASC_NODE":"64.6834","TLE_LINE1":"1 46155U 20057AQ  23089.19855488  .00027811  00000-0  18783-2 0  9993","REF_FRAME":"TEME","MEAN_ELEMENT_THEORY":"SGP4","ECCENTRICITY":"0.00021770","GP_ID":"229181599","MEAN_MOTION":"15.06404797","ARG_OF_PERICENTER":"82.3760","TLE_LINE2":"2 46155  53.0536  64.6834 0002177  82.3760 277.7476 15.06404797145765","ELEMENT_SET_NO":"999","EPOCH":"2023-03-30T04:45:55.141632","TIME_SYSTEM":"UTC","MEAN_ANOMALY":"277.7476","INCLINATION":"53.0536","OBJECT_NAME":"STARLINK-1667","EPHEMERIS_TYPE":"0","OBJECT_ID":"2020-057AQ","DECAY_DATE":null,"COUNTRY_CODE":"US","LAUNCH_DATE":"2020-08-18","APOAPSIS":"548.707","NORAD_CAT_ID":"46155","MEAN_MOTION_DOT":"0.00027811","SEMIMAJOR_AXIS":"6925.334","CENTER_NAME":"EARTH","FILE":"3875726","MEAN_MOTION_DDOT":"0.0000000000000","BSTAR":"0.00187830000000","PERIAPSIS":"545.691","REV_AT_EPOCH":"14576","OBJECT_TYPE":"PAYLOAD"},{"MEAN_ELEMENT_THEORY":"SGP4","GP_ID":"229179871","ECCENTRICITY":"0.00014480","MEAN_MOTION":"15.06395039","TLE_LINE2":"2 46156  53.0530  83.5331 0001448  75.9122 284.2028 15.06395039145531","ARG_OF_PERICENTER":"75.9122","EPOCH":"2023-03-30T10:54:48.751488","ELEMENT_SET_NO":"999","TIME_SYSTEM":"UTC","PERIOD":"95.592","CLASSIFICATION_TYPE":"U","RCS_SIZE":"LARGE","SITE":"AFETR","RA_OF_ASC_NODE":"83.5331","TLE_LINE1":"1 46156U 20057AR  23089.45473092  .00027120  00000-0  18328-2 0  9998","REF_FRAME":"TEME","MEAN_MOTION_DOT":"0.00027120","SEMIMAJOR_AXIS":"6925.364","CENTER_NAME":"EARTH","FILE":"3875726","MEAN_MOTION_DDOT":"0.0000000000000","BSTAR":"0.00183280000000","PERIAPSIS":"546.226","REV_AT_EPOCH":"14553","OBJECT_TYPE":"PAYLOAD","OBJECT_NAME":"STARLINK-1545","MEAN_ANOMALY":"284.2028","INCLINATION":"53.0530","EPHEMERIS_TYPE":"0","OBJECT_ID":"2020-057AR","DECAY_DATE":null,"LAUNCH_DATE":"2020-08-18","COUNTRY_CODE":"US","APOAPSIS":"548.232","NORAD_CAT_ID":"46156"},{"RCS_SIZE":"LARGE","PERIOD":"95.589","CLASSIFICATION_TYPE":"U","TLE_LINE1":"1 46157U 20057AS  23090.17162728  .00037158  00000-0  24971-2 0  9994","REF_FRAME":"TEME","SITE":"AFETR","RA_OF_ASC_NODE":"60.3155","MEAN_MOTION":"15.06448412","MEAN_ELEMENT_THEORY":"SGP4","GP_ID":"229193828","ECCENTRICITY":"0.00014780","ELEMENT_SET_NO":"999","EPOCH":"2023-03-31T04:07:08.596992","TIME_SYSTEM":"UTC","TLE_LINE2":"2 46157  53.0533  60.3155 0001478  75.4070 284.7082 15.06448412145339","ARG_OF_PERICENTER":"75.4070","DECAY_DATE":null,"COUNTRY_CODE":"US","LAUNCH_DATE":"2020-08-18","OBJECT_NAME":"STARLINK-1587","MEAN_ANOMALY":"284.7082","INCLINATION":"53.0533","EPHEMERIS_TYPE":"0","OBJECT_ID":"2020-057AS","APOAPSIS":"548.089","NORAD_CAT_ID":"46157","FILE":"3875990","MEAN_MOTION_DDOT":"0.0000000000000","BSTAR":"0.00249710000000","MEAN_MOTION_DOT":"0.00037158","SEMIMAJOR_AXIS":"6925.200","CENTER_NAME":"EARTH","REV_AT_EPOCH":"14533","OBJECT_TYPE":"PAYLOAD","PERIAPSIS":"546.042"},{"PERIAPSIS":"546.259","REV_AT_EPOCH":"14582","OBJECT_TYPE":"PAYLOAD","MEAN_MOTION_DOT":"0.00031324","CENTER_NAME":"EARTH","SEMIMAJOR_AXIS":"6925.389","FILE":"3875726","BSTAR":"0.00211320000000","MEAN_MOTION_DDOT":"0.0000000000000","APOAPSIS":"548.249","NORAD_CAT_ID":"46158","MEAN_ANOMALY":"242.8406","OBJECT_NAME":"STARLINK-1589","INCLINATION":"53.0543","EPHEMERIS_TYPE":"0","OBJECT_ID":"2020-057AT","DECAY_DATE":null,"COUNTRY_CODE":"US","LAUNCH_DATE":"2020-08-18","TLE_LINE2":"2 46158  53.0543  63.6106 0001437 117.2730 242.8406 15.06386770145823","ARG_OF_PERICENTER":"117.2730","TIME_SYSTEM":"UTC","ELEMENT_SET_NO":"999","EPOCH":"2023-03-30T10:30:55.307232","MEAN_ELEMENT_THEORY":"SGP4","ECCENTRICITY":"0.00014370","GP_ID":"229180873","MEAN_MOTION":"15.06386770","SITE":"AFETR","RA_OF_ASC_NODE":"63.6106","TLE_LINE1":"1 46158U 20057AT  23089.43814013  .00031324  00000-0  21132-2 0  9998","REF_FRAME":"TEME","PERIOD":"95.593","CLASSIFICATION_TYPE":"U","RCS_SIZE":"LARGE"},{"DECAY_DATE":null,"LAUNCH_DATE":"2020-08-18","COUNTRY_CODE":"US","OBJECT_NAME":"STARLINK-1595","INCLINATION":"53.0531","EPHEMERIS_TYPE":"0","MEAN_ANOMALY":"277.8670","OBJECT_ID":"2020-057AU","APOAPSIS":"548.560","NORAD_CAT_ID":"46159","FILE":"3876414","BSTAR":"0.00091032000000","MEAN_MOTION_DDOT":"0.0000000000000","MEAN_MOTION_DOT":"0.00013306","CENTER_NAME":"EARTH","SEMIMAJOR_AXIS":"6925.327","REV_AT_EPOCH":"14485","OBJECT_TYPE":"PAYLOAD","PERIAPSIS":"545.823","RCS_SIZE":"LARGE","PERIOD":"95.592","CLASSIFICATION_TYPE":"U","TLE_LINE1":"1 46159U 20057AU  23090.73927422  .00013306  00000-0  91032-3 0  9990","REF_FRAME":"TEME","SITE":"AFETR","RA_OF_ASC_NODE":"97.7681","MEAN_MOTION":"15.06407087","MEAN_ELEMENT_THEORY":"SGP4","ECCENTRICITY":"0.00019760","GP_ID":"229203247","TIME_SYSTEM":"UTC","EPOCH":"2023-03-31T17:44:33.292608","ELEMENT_SET_NO":"999","ARG_OF_PERICENTER":"82.2543","TLE_LINE2":"2 46159  53.0531  97.7681 0001976  82.2543 277.8670 15.06407087144856"},{"RA_OF_ASC_NODE":"79.8929","SITE":"AFETR","REF_FRAME":"TEME","TLE_LINE1":"1 46160U 20057AV  23090.26562681  .00026194  00000-0  17693-2 0  9991","CLASSIFICATION_TYPE":"U","PERIOD":"95.590","RCS_SIZE":"LARGE","ARG_OF_PERICENTER":"118.7943","TLE_LINE2":"2 46160  53.0538  79.8929 0001473 118.7943 241.3194 15.06433185145072","ELEMENT_SET_NO":"999","EPOCH":"2023-03-31T06:22:30.156384","TIME_SYSTEM":"UTC","ECCENTRICITY":"0.00014730","GP_ID":"229191612","MEAN_ELEMENT_THEORY":"SGP4","MEAN_MOTION":"15.06433185","NORAD_CAT_ID":"46160","APOAPSIS":"548.132","OBJECT_ID":"2020-057AV","MEAN_ANOMALY":"241.3194","OBJECT_NAME":"STARLINK-1598","INCLINATION":"53.0538","EPHEMERIS_TYPE":"0","COUNTRY_CODE":"US","LAUNCH_DATE":"2020-08-18","DECAY_DATE":null,"PERIAPSIS":"546.092","OBJECT_TYPE":"PAYLOAD","REV_AT_EPOCH":"14507","SEMIMAJOR_AXIS":"6925.247","CENTER_NAME":"EARTH","MEAN_MOTION_DOT":"0.00026194","MEAN_MOTION_DDOT":"0.0000000000000","BSTAR":"0.00176930000000","FILE":"3875896"},{"RCS_SIZE":"LARGE","PERIOD":"95.589","CLASSIFICATION_TYPE":"U","TLE_LINE1":"1 46161U 20057AW  23090.37620961  .00031717  00000-0  21361-2 0  9994","REF_FRAME":"TEME","SITE":"AFETR","RA_OF_ASC_NODE":"79.3973","MEAN_MOTION":"15.06444093","MEAN_ELEMENT_THEORY":"SGP4","GP_ID":"229203251","ECCENTRICITY":"0.00016120","TIME_SYSTEM":"UTC","ELEMENT_SET_NO":"999","EPOCH":"2023-03-31T09:01:44.510304","TLE_LINE2":"2 46161  53.0533  79.3973 0001612  90.3334 269.7840 15.06444093145089","ARG_OF_PERICENTER":"90.3334","DECAY_DATE":null,"LAUNCH_DATE":"2020-08-18","COUNTRY_CODE":"US","EPHEMERIS_TYPE":"0","OBJECT_NAME":"STARLINK-1600","INCLINATION":"53.0533","MEAN_ANOMALY":"269.7840","OBJECT_ID":"2020-057AW","APOAPSIS":"548.195","NORAD_CAT_ID":"46161","FILE":"3876415","BSTAR":"0.00213610000000","MEAN_MOTION_DDOT":"0.0000000000000","MEAN_MOTION_DOT":"0.00031717","CENTER_NAME":"EARTH","SEMIMAJOR_AXIS":"6925.213","REV_AT_EPOCH":"14508","OBJECT_TYPE":"PAYLOAD","PERIAPSIS":"545.962"},{"GP_ID":"229195722","ECCENTRICITY":"0.00013730","MEAN_ELEMENT_THEORY":"SGP4","MEAN_MOTION":"15.06451532","ARG_OF_PERICENTER":"111.3903","TLE_LINE2":"2 46162  53.0535  79.0811 0001373 111.3903 248.7232 15.06451532145101","ELEMENT_SET_NO":"999","EPOCH":"2023-03-31T10:42:34.142400","TIME_SYSTEM":"UTC","CLASSIFICATION_TYPE":"U","PERIOD":"95.589","RCS_SIZE":"LARGE","RA_OF_ASC_NODE":"79.0811","SITE":"AFETR","REF_FRAME":"TEME","TLE_LINE1":"1 46162U 20057AX  23090.44622850  .00029426  00000-0  19834-2 0  9998","SEMIMAJOR_AXIS":"6925.191","CENTER_NAME":"EARTH","MEAN_MOTION_DOT":"0.00029426","MEAN_MOTION_DDOT":"0.0000000000000","BSTAR":"0.00198340000000","FILE":"3876094","PERIAPSIS":"546.105","OBJECT_TYPE":"PAYLOAD","REV_AT_EPOCH":"14510","OBJECT_ID":"2020-057AX","INCLINATION":"53.0535","OBJECT_NAME":"STARLINK-1603","MEAN_ANOMALY":"248.7232","EPHEMERIS_TYPE":"0","COUNTRY_CODE":"US","LAUNCH_DATE":"2020-08-18","DECAY_DATE":null,"NORAD_CAT_ID":"46162","APOAPSIS":"548.006"},{"RCS_SIZE":"LARGE","CLASSIFICATION_TYPE":"U","PERIOD":"95.589","REF_FRAME":"TEME","TLE_LINE1":"1 46163U 20057AY  23090.31170252  .00038185  00000-0  25651-2 0  9995","RA_OF_ASC_NODE":"59.6847","SITE":"AFETR","MEAN_MOTION":"15.06450191","ECCENTRICITY":"0.00014450","GP_ID":"229195744","MEAN_ELEMENT_THEORY":"SGP4","TIME_SYSTEM":"UTC","EPOCH":"2023-03-31T07:28:51.097728","ELEMENT_SET_NO":"999","TLE_LINE2":"2 46163  53.0535  59.6847 0001445 105.4384 254.6765 15.06450191145356","ARG_OF_PERICENTER":"105.4384","LAUNCH_DATE":"2020-08-18","COUNTRY_CODE":"US","DECAY_DATE":null,"OBJECT_ID":"2020-057AY","EPHEMERIS_TYPE":"0","INCLINATION":"53.0535","OBJECT_NAME":"STARLINK-1610","MEAN_ANOMALY":"254.6765","NORAD_CAT_ID":"46163","APOAPSIS":"548.060","BSTAR":"0.00256510000000","MEAN_MOTION_DDOT":"0.0000000000000","FILE":"3876096","CENTER_NAME":"EARTH","SEMIMAJOR_AXIS":"6925.195","MEAN_MOTION_DOT":"0.00038185","OBJECT_TYPE":"PAYLOAD","REV_AT_EPOCH":"14535","PERIAPSIS":"546.059"}];
